ONEWEB-0291             
1 49081U 21075G   24177.92050509 -.00002232  00000+0 -57833-2 0  9996
2 49081  87.9164 149.4618 0001812  82.6531 277.4806 13.17661118138628
ONEWEB-0293             
1 49082U 21075H   24177.94633739  .00003780  00000+0  97009-2 0  9997
2 49082  87.9167 149.4706 0001866  78.4497 281.6844 13.17626517138659
ONEWEB-0294             
1 49083U 21075J   24177.89712430 -.00000182  00000+0 -54100-3 0  9999
2 49083  87.8941 134.2939 0001616  62.5337 297.5956 13.12443248139967
ONEWEB-0295             
1 49084U 21075K   24177.94793834  .00003952  00000+0  10145-1 0  9998
2 49084  87.9174 149.4481 0001719  87.9510 272.1818 13.17628030138611
ONEWEB-0296             
1 49085U 21075L   24177.87766717  .00000385  00000+0  10347-2 0  9993
2 49085  87.8944 134.2987 0001292  74.4530 285.6741 13.12441897139960
ONEWEB-0297             
1 49086U 21075M   24177.90847769 -.00000348  00000+0 -10024-2 0  9998
2 49086  87.8950 134.2999 0002073  85.0842 275.0523 13.12442825140575
ONEWEB-0298             
1 49087U 21075N   24177.95117592  .00004370  00000+0  11220-1 0  9993
2 49087  87.9174 149.4654 0002111  87.1517 272.9856 13.17626022138644
ONEWEB-0299             
1 49088U 21075P   24177.95281617  .00004644  00000+0  11927-1 0  9992
2 49088  87.9166 149.4346 0001930  92.0791 268.0561 13.17621930138621
